#dP2022  9 22 12  0  0.00000000      96 __u+U ITR00 EXT  IAC
## 2228 388800.00000000   900.00000000 59844 0.5000000000000
+  117   C06C07C08C09C10C11C12C13C14C16C19C20C21C22C23C24C25
+        C26C27C28C29C30C32C33C34C35C36C37C38C39C40C41C42C43
+        C44C45C46E01E02E03E04E05E07E08E09E10E11E12E13E14E15
+        E18E19E21E24E25E26E27E30E31E33E34E36G01G02G03G04G05
+        G06G07G08G09G10G11G12G13G14G15G16G17G18G19G20G21G22
+        G23G24G25G26G27G28G29G30G31G32J02J03R01R02R03R04R05
+        R07R08R09R11R12R13R14R15R17R18R19R20R21R24R25  0  0
++        12  9 11 10  6  8  9 11  9 12  9  9  8  9  8  8  8
++         9  9  8  9  7  8  9  9  8  7  9  8 11  7  8  8  7
++         8  8  9  7  8  8  8  8  8  8  8 10  7  8  8  9  8
++         8  8  8  7  8  9  7  8  7  8  8  8  7  7  8  7  8
++         7  7  8  7  8  7  7  8  7  8  8  8  7  8  8  8  7
++         7  8  7  8  9  8  8 12  8  8  7  9  9  9  9  8  8
++         9  8 10  8  7  8  8  9  9 10  8  9  7  9  9  0  0
%c M  cc GPS ccc cccc cccc cccc cccc ccccc ccccc ccccc ccccc
%c cc cc ccc ccc cccc cccc cccc cccc ccccc ccccc ccccc ccccc
%f  0.0000000  0.000000000  0.00000000000  0.000000000000000
%f  0.0000000  0.000000000  0.00000000000  0.000000000000000
%i    0    0    0    0      0      0      0      0         0
%i    0    0    0    0      0      0      0      0         0
/* IAC                                ULTRA-RAPID PREDICTION
/* S/V CLOCKS ARE ALIGNED TO GNSS TIME                      
/* G:C1WC2W R:C1PC2P E:C1XC5X C:C2IC6I J:C1CC2S             
/* PCV:IGS14_2218 OL/AL:FES2004  NONE     YN ORB:CoN CLK:CoN
*  2022 09 22 23 45  0.00000000
PC06 -14018.417329  23694.433610 -31987.996711    899.818221
PC07 -13654.350652  39772.344847   1377.381331   -178.057370
PC08    926.715482  30459.335632  29216.665358    478.062961
PC09  -3764.206582  24213.485920 -33980.470097   -855.674892
PC10  -7485.344366  40438.171972   8276.245540     93.350104
PC11   4867.078679  14763.512888  23244.768418   -393.233427
PC12 -15347.694946  14450.827769  18310.741382   -508.690611
PC13   7068.524205  34437.535699  23621.365557     87.790486
PC14    790.035864  24410.715051 -13440.775718    670.692892
PC16 -18541.537882  22291.694183 -30517.557962    135.751529
PC19  -7770.880189 -18050.567721  19834.734175   -714.702344
PC20   5151.048492 -26646.253084   6560.214282    735.513117
PC21 -15923.506616  19731.505764  11640.116082   -452.235354
PC22 -16789.435999   1338.132568  22236.330744   -741.535771
PC23  21586.215040   9240.683850  15094.485493   -211.986587
PC24   1648.167738  21785.634337 -17379.550298   -271.207699
PC25  17824.445609  21477.388307   -669.657622   -674.332028
PC26 -12740.445043  10139.750066 -22670.983154    -11.326881
PC27  22621.192229 -11547.449873 -11574.233050     25.002626
PC28  27417.527743   -526.684474   5207.538871     16.072745
PC29 -16194.048727 -10971.455448 -19906.749359     17.164419
PC30   5074.229437 -16492.951128 -21934.133180      0.071001
PC32  15801.033524 -19807.061558 -11697.656448   -791.181783
PC33   7836.650567  18078.379592 -19760.154546   -730.569850
PC34  -3828.418697  16478.619463  22185.678684    100.831951
PC35 -27145.150975    516.791917  -6519.785369      9.119194
PC36 -16964.493802 -22117.503755   1270.709912   -338.519358
PC37  13929.066162  -8614.634107  22615.114698   -280.144391
PC38  -6755.767432  26558.836963  32106.285265     26.118537
PC39 -22918.276267  22225.468437 -27624.171941     -0.484936
PC40 -20276.462009  36798.589111  -1624.898681     -4.653537
PC41  16679.058358   -808.738462 -22315.215198   -104.016730
PC42  -5934.859667  26710.815593  -5399.542299   -343.677322
PC43  15455.022386  11492.821452  20181.008557     15.714535
PC44 -22354.319958  12309.144231  11311.253380     58.708549
PC45 -21463.483414  -8955.901458 -15397.392061     -1.039018
PC46  -3226.665847 -22369.319358  16350.166511     -1.627876
PE01  14995.381937  -9276.816532  23783.118291   -533.219040
PE02 -14921.740553   9503.096626 -23727.825616    326.350651
PE03 -24836.593352  15070.386118   5635.308761   -602.557919
PE04  14255.484787 -22803.044887  12370.910410  -1121.242377
PE05 -21050.052908  -1706.101659  20736.890373   -141.421024
PE07   5095.066632  17210.028355 -23537.093117   -707.508773
PE08 -14160.845345  22789.412308 -12494.633088   -603.281698
PE09  -4908.179775 -17176.852365  23601.086534   -668.022176
PE10  -5153.970346 -17793.932829 -23091.561140   -478.692308
PE11 -16114.414170 -17968.638187 -17149.024723   2107.517411
PE12   5882.774005 -14993.270152 -24839.084112   -183.757154
PE13  15415.135568  17986.383649  17753.619776    430.609030
PE14  21725.586057 -21288.030784  -8787.935254      7.297159
PE15  -6066.059843  14840.738891  24884.733625    718.680663
PE18 -20886.215925  12979.397429   1175.811460   -944.973509
PE19  25240.978068 -13178.850943  -8082.156544  -4458.625307
PE21  16707.686999  11594.251844  21515.898849   -759.286364
PE24  -8313.404215 -27792.507780  -5834.369221   -851.703051
PE25 -16650.838691 -11916.776787 -21360.518799   -588.356798
PE26  27827.797946  10092.742446   -606.861906  -1644.176057
PE27   9020.527463  27364.741137   6810.787942   -398.417543
PE30  -4587.684868  26464.988992 -12454.176567   -858.442088
PE31   3922.734589 -26871.149152  11790.436854   -504.149453
PE33  23845.896064  -2952.028402 -17287.797841   -453.990388
PE34 -23715.601528   3129.975745  17413.572851     -5.858871
PE36 -27650.360180 -10556.454576   -281.062299   -435.402522
PG01 -22024.626547 -14556.070953  -4580.462537    279.361999
PG02  17987.327775  15889.140769  11850.160377   -645.098757
PG03 -11803.919661 -17943.575383  15566.425576   -355.165816
PG04 -15725.236591  -6872.568339  20300.855427   -114.718599
PG05   6914.505292  24931.343957  -5875.664541    -97.675755
PG06  -9678.514274  11397.931602  22023.178745    469.496907
PG07 -24484.879182  -4562.016786  -9475.359028    305.343511
PG08  -7202.733719 -13468.756751 -21749.223972    -85.757039
PG09 -22424.529848   3963.587442  13627.764465   -292.680714
PG10  11724.462189 -14363.947110 -18745.788016     -4.449127
PG11   1798.976063  17096.914613  20255.665541    -18.678761
PG12  10260.549096  19247.066814  14963.323846   -282.588380
PG13  -2582.922451  16893.599071 -20450.615960    392.625284
PG14 -13389.273623  12316.185347 -19305.422457   -101.523387
PG15   9250.523990  13204.546019 -21530.944626    -26.812668
PG16    348.527548 -26305.822354   -296.378499   -524.810943
PG17 -22959.912974  13406.506703    -42.182359    661.818527
PG18  23838.242824   3564.597424 -11317.995888     39.462550
PG19 -18297.352681  16617.362027   9135.208252    214.274082
PG20   -254.901006  25347.609458   8320.091601    484.230038
PG21 -17818.811144 -15838.965296 -11827.394225    159.092930
PG22  15405.836790 -18163.657878  11989.031624    332.676973
PG23  14753.902776  -3129.790837 -21867.096748     -0.332550
PG24  20508.017240  14986.478357  -8783.140061    126.137556
PG25  15054.711508   7190.087813  20435.559063    374.886761
PG26   4392.126490 -23974.003091  10068.302686    229.645732
PG27   5406.955726 -18636.698586 -18168.617048    208.379587
PG28  -9505.293841  20918.130096 -13023.840649    336.330694
PG29  22245.056958  -1466.202755  14456.284816   -553.820732
PG30 -18959.349430   5162.554064 -17891.221375   -537.104737
PG31   9468.982214 -12213.730159  21487.040371   -194.304267
PG32  20958.736346 -16034.328932   1997.815010   -241.333733
PJ02 -20325.533983  27434.890762 -20163.816763     -5.596946
PJ03 -29899.611827  24271.422816  22190.048732     -1.924320
PR01  11407.268732   2017.225795 -22732.290722     15.153202
PR02  16191.591198 -15419.833558 -12177.237874    -22.740317
PR03  10804.628748 -22523.259393   5042.643333     64.200964
PR04   -195.048230 -16845.798338  19168.904570    158.562091
PR05 -11243.595801  -2038.809534  22812.470636    100.069985
PR07 -10512.399316  22560.814122  -5673.782264     41.412611
PR08    375.369585  16847.262265 -19111.487409    -67.299105
PR09 -10532.501050   4344.662797 -22803.061520     78.165983
PR11  11483.053901  22606.298501  -2698.042938     26.653619
PR12  15728.265148  13167.402421  15204.361440     21.530274
PR13  11063.342340  -2727.144880  22812.743617    -27.065563
PR14  -1002.188629 -18773.968682  17266.760212     24.248309
PR15 -11664.686300 -22622.492477   1747.619588     93.585055
PR17   8505.213871  -9767.957770 -21977.014811    563.223145
PR18  -9944.633053  -9883.742552 -21304.805311     43.704543
PR19 -22364.526381  -6071.395438 -10644.100427   -204.652174
PR20 -23394.629017   2895.954400   9790.869629    -78.877123
PR21  -6767.161562   9915.657976  22500.362096   -335.853275
PR24  22999.829335  -4035.728214 -10279.887231    116.124075
PR25  10202.157197  10571.633078  20876.409731     13.470126
EOF
